ONEWEB-0424             
1 50497U 21132AE  23233.87411253 -.00000451  00000+0 -11765-2 0  9991
2 50497  87.9212 180.3430 0002853  81.5380 278.6076 13.18688609 87133
ONEWEB-0426             
1 50498U 21132AF  23233.83616606  .00000032  00000+0  48865-4 0  9993
2 50498  87.9282 180.3332 0001692  67.0526 293.0785 13.18682496 87083
ONEWEB-0427             
1 50499U 21132AG  23233.41674766 -.00001225  00000+0 -31398-2 0  9997
2 50499  87.9223 180.4359 0001829  70.6257 289.5072 13.18690070 87066
ONEWEB-0429             
1 50500U 21132AH  23233.85933848  .00000054  00000+0  10439-3 0  9998
2 50500  87.9271 180.3153 0002176  81.9259 278.2120 13.18690268 87086
ONEWEB-0430             
1 50501U 21132AJ  23233.84879977 -.00000127  00000+0 -35410-3 0  9999
2 50501  87.9246 180.3112 0002359  79.6990 280.4408 13.18688489 87124
ONEWEB-0432             
1 50502U 21132AK  23233.88043301  .00000070  00000+0  14602-3 0  9993
2 50502  87.9212 180.3425 0002211  82.4671 277.6712 13.18682732 87097
ONEWEB-0440             
1 50503U 21132AL  23234.17129191  .00006587  00000+0  16672-1 0  9995
2 50503  87.9219 180.2975 0001398 102.1109 258.0179 13.18650997 87116
ONEWEB-0450             
1 50504U 21132AM  23233.10270840  .00000071  00000+0  14858-3 0  9994
2 50504  87.9256 180.4978 0002213  91.8163 268.3223 13.18686221 87005
